{
    "links": {
        "self": "http://www.neowsapp.com/rest/v1/neo/3426636?api_key=iIulBulltgU6a56xZRHN4H3l9WmuAYTsLGpBGhQ2"
    },
    "id": "3426636",
    "neo_reference_id": "3426636",
    "name": "(2008 RV)",
    "designation": "2008 RV",
    "nasa_jpl_url": "http://ssd.jpl.nasa.gov/sbdb.cgi?sstr=3426636",
    "absolute_magnitude_h": 21.7,
    "estimated_diameter": {
        "kilometers": {
            "estimated_diameter_min": 0.1214940408,
            "estimated_diameter_max": 0.2716689341
        },
        "meters": {
            "estimated_diameter_min": 121.4940407996,
            "estimated_diameter_max": 271.6689340891
        },
        "miles": {
            "estimated_diameter_min": 0.0754928736,
            "estimated_diameter_max": 0.1688071972
        },
        "feet": {
            "estimated_diameter_min": 398.6025088171,
            "estimated_diameter_max": 891.3023057169
        }
    },
    "is_potentially_hazardous_asteroid": true,
    "close_approach_data": [
        {
            "close_approach_date": "1967-05-18",
            "close_approach_date_full": "1967-May-18 22:11",
            "epoch_date_close_approach": -82777740000,
            "relative_velocity": {
                "kilometers_per_second": "10.8676937234",
                "kilometers_per_hour": "39123.6974043203",
                "miles_per_hour": "24309.9440899233"
            },
            "miss_distance": {
                "astronomical": "0.0694759955",
                "lunar": "27.0261622495",
                "kilometers": "10393460.942929585",
                "miles": "6458197.159354873"
            },
            "orbiting_body": "Mars"
        },
        {
            "close_approach_date": "1967-10-01",
            "close_approach_date_full": "1967-Oct-01 03:42",
            "epoch_date_close_approach": -71093880000,
            "relative_velocity": {
                "kilometers_per_second": "19.2432355421",
                "kilometers_per_hour": "69275.6479516878",
                "miles_per_hour": "43045.1935842029"
            },
            "miss_distance": {
                "astronomical": "0.3329657956",
                "lunar": "129.5236944884",
                "kilometers": "49810973.804615372",
                "miles": "30951103.9004292536"
            },
            "orbiting_body": "Earth"
        },
        {
            "close_approach_date": "1991-06-25",
            "close_approach_date_full": "1991-Jun-25 18:56",
            "epoch_date_close_approach": 677876160000,
            "relative_velocity": {
                "kilometers_per_second": "11.3843422392",
                "kilometers_per_hour": "40983.6320611718",
                "miles_per_hour": "25465.6351548987"
            },
            "miss_distance": {
                "astronomical": "0.0781364752",
                "lunar": "30.3950888528",
                "kilometers": "11689050.259227824",
                "miles": "7263239.0302150112"
            },
            "orbiting_body": "Earth"
        },
        {
            "close_approach_date": "2008-08-31",
            "close_approach_date_full": "2008-Aug-31 14:48",
            "epoch_date_close_approach": 1220194080000,
            "relative_velocity": {
                "kilometers_per_second": "9.5016766564",
                "kilometers_per_hour": "34206.0359628935",
                "miles_per_hour": "21254.3005126101"
            },
            "miss_distance": {
                "astronomical": "0.0389140295",
                "lunar": "15.1375574755",
                "kilometers": "5821455.926317165",
                "miles": "3617284.976880277"
            },
            "orbiting_body": "Earth"
        },
        {
            "close_approach_date": "2049-09-22",
            "close_approach_date_full": "2049-Sep-22 15:55",
            "epoch_date_close_approach": 2515938900000,
            "relative_velocity": {
                "kilometers_per_second": "15.2771092523",
                "kilometers_per_hour": "54997.5933082465",
                "miles_per_hour": "34173.3656864491"
            },
            "miss_distance": {
                "astronomical": "0.2118423521",
                "lunar": "82.4066749669",
                "kilometers": "31691164.649950027",
                "miles": "19691976.5843912926"
            },
            "orbiting_body": "Earth"
        }
    ],
    "orbital_data": {
        "orbit_id": "22",
        "orbit_determination_date": "2017-04-06 09:03:01",
        "first_observation_date": "2008-09-02",
        "last_observation_date": "2008-11-03",
        "data_arc_in_days": 62,
        "observations_used": 84,
        "orbit_uncertainty": "6",
        "minimum_orbit_intersection": ".00646255",
        "jupiter_tisserand_invariant": "3.383",
        "epoch_osculation": "2459000.5",
        "eccentricity": ".5639569842935115",
        "semi_major_axis": "2.269491606945936",
        "inclination": "2.28096914731449",
        "ascending_node_longitude": "119.9114779659772",
        "orbital_period": "1248.795423041353",
        "perihelion_distance": ".9895959644132707",
        "perihelion_argument": "192.3429505945033",
        "aphelion_distance": "3.549387249478602",
        "perihelion_time": "2458437.917247284136",
        "mean_anomaly": "162.1801195302783",
        "mean_motion": ".2882778022386128",
        "equinox": "J2000",
        "orbit_class": {
            "orbit_class_type": "APO",
            "orbit_class_description": "Near-Earth asteroid orbits which cross the Earth’s orbit similar to that of 1862 Apollo",
            "orbit_class_range": "a (semi-major axis) > 1.0 AU; q (perihelion) < 1.017 AU"
        }
    },
    "is_sentry_object": false
}